NORAD_CAT_ID,OBJECT_NAME,OBJECT_TYPE,EPOCH,MEAN_MOTION,ECCENTRICITY,INCLINATION,RA_OF_ASC_NODE,ARG_OF_PERICENTER,MEAN_ANOMALY,BSTAR,MEAN_MOTION_DOT,MEAN_MOTION_DDOT,TLE_LINE0,TLE_LINE1,TLE_LINE2,SEMIMAJOR_AXIS,PERIOD,APOGEE,PERIGEE,DECAYED
55654.0,STARLINK-5070,PAYLOAD,2023-05-18 18:11:47,15.69937059,0.000336,69.9986,256.9363,272.3156,87.7655,9.803e-06,9.67e-06,0.0,0 STARLINK-5070,1 55654U 23021AC  23138.75819188  .00000967  00000-0  98030-5 0  9994,2 55654  69.9986 256.9363 0003360 272.3156  87.7655 15.69937059 14979,6737.214,91.723,361.343,356.815,0.0
55654.0,STARLINK-5070,PAYLOAD,2023-05-19 09:29:40,15.69644536,0.0003822,69.9974,255.1454,277.0807,82.9954,-0.00030708,-0.00036557,0.0,0 STARLINK-5070,1 55654U 23021AC  23139.39560652 -.00036557  00000-0 -30708-3 0  9996,2 55654  69.9974 255.1454 0003822 277.0807  82.9954 15.69644536 14778,6738.051,91.741,362.491,357.341,0.0
55654.0,STARLINK-5070,PAYLOAD,2023-05-19 17:08:31,15.69620775,0.0004386,69.9973,254.2494,283.4847,76.586,-0.00030939,-0.00036799,0.0,0 STARLINK-5070,1 55654U 23021AC  23139.71425144 -.00036799  00000-0 -30939-3 0  9992,2 55654  69.9973 254.2494 0004386 283.4847  76.5860 15.69620775 15126,6738.119,91.742,362.939,357.029,0.0
55654.0,STARLINK-5070,PAYLOAD,2023-05-20 06:54:41,15.69373299,0.0010236,70.0008,252.6438,273.5462,86.4562,-0.00054781,-0.00064297,0.0,0 STARLINK-5070,1 55654U 23021AC  23140.28797736 -.00064297  00000-0 -54781-3 0  9990,2 55654  70.0008 252.6438 0010236 273.5462  86.4562 15.69373299 14913,6738.827,91.756,367.59,353.795,0.0
55654.0,STARLINK-5070,PAYLOAD,2023-05-20 22:00:01,15.6637275,0.0003474,70.001,250.8831,274.4754,29.3325,-0.010101,-0.00954058,0.0,0 STARLINK-5070,1 55654U 23021AC  23140.91668981 -.00954058  00000-0 -10101-1 0  9998,2 55654  70.0010 250.8831 0003474 274.4754  29.3325 15.66372750 15005,6747.431,91.932,371.64,366.952,0.0
55654.0,STARLINK-5070,PAYLOAD,2023-05-21 14:00:01,15.65029665,0.000368,70.0014,249.0209,274.9572,185.3322,-0.0099229,-0.00893643,0.0,0 STARLINK-5070,1 55654U 23021AC  23141.58334491 -.00893643  00000-0 -99229-2 0  9999,2 55654  70.0014 249.0209 0003680 274.9572 185.3322 15.65029665 15115,6751.29,92.011,375.64,370.671,0.0
55654.0,STARLINK-5070,PAYLOAD,2023-05-22 00:00:00,15.64224824,0.0003613,70.001,247.8585,270.9529,15.5711,-0.010457,-0.00910411,0.0,0 STARLINK-5070,1 55654U 23021AC  23142.00001157 -.00910411  00000-0 -10457-1 0  9995,2 55654  70.0010 247.8585 0003613 270.9529  15.5711 15.64224824  1303,6753.606,92.058,377.911,373.031,0.0
55654.0,STARLINK-5070,PAYLOAD,2023-05-22 06:00:02,15.63754285,0.0003586,70.001,247.1619,266.9264,346.8083,-0.010771,-0.00919537,0.0,0 STARLINK-5070,1 55654U 23021AC  23142.25002315 -.00919537  00000-0 -10771-1 0  9996,2 55654  70.0010 247.1619 0003586 266.9264 346.8083 15.63754285 15219,6754.961,92.086,379.248,374.403,0.0
55654.0,STARLINK-5070,PAYLOAD,2023-05-22 14:00:01,15.63059114,0.0003665,70.0008,246.234,273.3868,55.8287,-0.010354,-0.0086498,0.0,0 STARLINK-5070,1 55654U 23021AC  23142.58334491 -.00864980  00000-0 -10354-1 0  9993,2 55654  70.0008 246.2340 0003665 273.3868  55.8287 15.63059114  1304,6756.963,92.127,381.305,376.352,0.0
55654.0,STARLINK-5070,PAYLOAD,2023-05-22 22:00:00,15.62456572,0.000355,70.0005,245.3067,272.8849,131.0601,-0.011765,-0.00951212,0.0,0 STARLINK-5070,1 55654U 23021AC  23142.91667824 -.00951212  00000-0 -11765-1 0  9991,2 55654  70.0005 245.3067 0003550 272.8849 131.0601 15.62456572  1308,6758.701,92.163,382.965,378.166,0.0
55654.0,STARLINK-5070,PAYLOAD,2023-05-23 06:00:00,15.61802969,0.0003352,70.0009,244.3805,268.7221,209.1792,-0.011755,-0.00928598,0.0,0 STARLINK-5070,1 55654U 23021AC  23143.25001157 -.00928598  00000-0 -11755-1 0  9990,2 55654  70.0009 244.3805 0003352 268.7221 209.1792 15.61802969 15373,6760.586,92.201,384.717,380.185,0.0
55654.0,STARLINK-5070,PAYLOAD,2023-05-23 22:00:00,15.60500064,0.0003338,70.0002,242.5307,270.9487,352.5362,-0.01273,-0.00953607,0.0,0 STARLINK-5070,1 55654U 23021AC  23143.91667824 -.00953607  00000-0 -12730-1 0  9995,2 55654  70.0002 242.5307 0003338 270.9487 352.5362 15.60500064  1300,6764.349,92.278,388.472,383.956,0.0
55654.0,STARLINK-5070,PAYLOAD,2023-05-24 14:00:01,15.59150032,0.0003327,70.0003,240.6845,274.0009,132.0089,-0.012089,-0.00867811,0.0,0 STARLINK-5070,1 55654U 23021AC  23144.58335648 -.00867811  00000-0 -12089-1 0  9993,2 55654  70.0003 240.6845 0003327 274.0009 132.0089 15.59150032 15586,6768.253,92.358,392.37,387.866,0.0
55654.0,STARLINK-5070,PAYLOAD,2023-05-24 22:00:00,15.58529357,0.0003213,70.0,239.7627,273.5432,202.4449,-0.013354,-0.00930063,0.0,0 STARLINK-5070,1 55654U 23021AC  23144.91667824 -.00930063  00000-0 -13354-1 0  9990,2 55654  70.0000 239.7627 0003213 273.5432 202.4449 15.58529357  1304,6770.05,92.395,394.09,389.739,0.0
55654.0,STARLINK-5070,PAYLOAD,2023-05-25 06:00:00,15.57897066,0.0003218,70.0004,238.8423,266.8708,278.3741,-0.013853,-0.00940926,0.0,0 STARLINK-5070,1 55654U 23021AC  23145.25001157 -.00940926  00000-0 -13853-1 0  9992,2 55654  70.0004 238.8423 0003218 266.8708 278.3741 15.57897066 15685,6771.881,92.432,395.925,391.567,0.0
55654.0,STARLINK-5070,PAYLOAD,2023-05-25 14:00:01,15.57196036,0.0003311,70.0003,237.9223,272.9175,340.8317,-0.013073,-0.00871325,0.0,0 STARLINK-5070,1 55654U 23021AC  23145.58334491 -.00871325  00000-0 -13073-1 0  9998,2 55654  70.0003 237.9223 0003311 272.9175 340.8317 15.57196036  1309,6773.914,92.474,398.021,393.536,0.0
55654.0,STARLINK-5070,PAYLOAD,2023-05-26 00:00:02,15.56370694,0.0003402,70.0,236.7734,271.8134,156.513,-0.01328,-0.0085936,0.0,0 STARLINK-5070,1 55654U 23021AC  23146.00002315 -.00859360  00000-0 -13280-1 0  9998,2 55654  70.0000 236.7734 0003402 271.8134 156.5130 15.56370694  1302,6776.308,92.523,400.478,395.868,0.0
55654.0,STARLINK-5070,PAYLOAD,2023-05-26 14:00:01,15.55243745,0.0003334,70.0002,235.1676,276.5295,177.9831,-0.014182,-0.00878349,0.0,0 STARLINK-5070,1 55654U 23021AC  23146.58334491 -.00878349  00000-0 -14182-1 0  9994,2 55654  70.0002 235.1676 0003334 276.5295 177.9831 15.55243745 15895,6779.581,92.59,403.706,399.186,0.0
55654.0,STARLINK-5070,PAYLOAD,2023-05-26 22:00:01,15.54608552,0.0003218,69.9999,234.251,273.683,246.2486,-0.015225,-0.00917242,0.0,0 STARLINK-5070,1 55654U 23021AC  23146.91668981 -.00917242  00000-0 -15225-1 0  9990,2 55654  69.9999 234.2510 0003218 273.6830 246.2486 15.54608552  1305,6781.428,92.628,405.475,401.11,0.0
55654.0,STARLINK-5070,PAYLOAD,2023-05-27 06:00:02,15.53984135,0.000329,70.0001,233.3358,267.7593,316.7324,-0.016004,-0.0094004,0.0,0 STARLINK-5070,1 55654U 23021AC  23147.25002315 -.00940040  00000-0 -16004-1 0  9999,2 55654  70.0001 233.3358 0003290 267.7593 316.7324 15.53984135 15999,6783.244,92.665,407.341,402.878,0.0
55654.0,STARLINK-5070,PAYLOAD,2023-05-27 22:00:00,15.52643496,0.0003444,69.9999,231.5074,270.9865,80.2609,-0.016125,-0.00905463,0.0,0 STARLINK-5070,1 55654U 23021AC  23147.91667824 -.00905463  00000-0 -16125-1 0  9998,2 55654  69.9999 231.5074 0003444 270.9865  80.2609 15.52643496  1306,6787.148,92.745,411.351,406.676,0.0
55654.0,STARLINK-5070,PAYLOAD,2023-05-28 06:00:00,15.51997934,0.0003521,70.0004,230.5947,268.0634,145.4011,-0.015873,-0.00873781,0.0,0 STARLINK-5070,1 55654U 23021AC  23148.25001157 -.00873781  00000-0 -15873-1 0  9993,2 55654  70.0004 230.5947 0003521 268.0634 145.4011 15.51997934  1301,6789.03,92.784,413.286,408.505,0.0
55654.0,STARLINK-5070,PAYLOAD,2023-05-28 14:00:01,15.51224029,0.0003503,70.0004,229.6828,275.243,199.6897,-7.3479e-05,-4.479e-05,0.0,0 STARLINK-5070,1 55654U 23021AC  23148.58334491 -.00004479  00000-0 -73479-4 0  9998,2 55654  70.0004 229.6828 0003503 275.2430 199.6897 15.51224029 16208,6791.288,92.83,415.532,410.774,0.0
55654.0,STARLINK-5070,PAYLOAD,2023-05-28 22:00:00,15.51228812,0.0003634,70.0001,228.7712,273.0262,262.8176,-0.00042293,-0.00024935,0.0,0 STARLINK-5070,1 55654U 23021AC  23148.91667824 -.00024935  00000-0 -42293-3 0  9992,2 55654  70.0001 228.7712 0003634 273.0262 262.8176 15.51228812  1303,6791.274,92.83,415.607,410.671,0.0
55654.0,STARLINK-5070,PAYLOAD,2023-05-29 04:59:19,15.52398293,0.0001131,69.9993,227.9788,343.0881,17.0268,-0.0035165,-0.00209916,0.0,0 STARLINK-5070,1 55654U 23021AC  23149.20786574 -.00209916  00000-0 -35165-2 0  9992,2 55654  69.9993 227.9788 0001131 343.0881  17.0268 15.52398293 16309,6787.863,92.76,410.496,408.96,0.0
55654.0,STARLINK-5070,PAYLOAD,2023-05-29 14:00:01,15.5097604,0.0003836,70.0005,226.9486,274.8964,22.7365,-0.015889,-0.00845808,0.0,0 STARLINK-5070,1 55654U 23021AC  23149.58334491 -.00845808  00000-0 -15889-1 0  9996,2 55654  70.0005 226.9486 0003836 274.8964  22.7365 15.50976040 16353,6792.012,92.845,416.482,411.272,0.0
55654.0,STARLINK-5070,PAYLOAD,2023-05-29 14:16:22,15.51947548,0.0004663,69.9984,226.9182,291.2421,68.8268,-0.0027779,-0.00164238,0.0,0 STARLINK-5070,1 55654U 23021AC  23149.59470959 -.00164238  00000-0 -27779-2 0  9990,2 55654  69.9984 226.9182 0004663 291.2421  68.8268 15.51947548 16668,6789.177,92.787,414.208,407.876,0.0
55654.0,STARLINK-5070,PAYLOAD,2023-05-29 22:00:00,15.50352859,0.0003628,70.0004,226.038,273.2431,84.6462,-0.01755,-0.00907504,0.0,0 STARLINK-5070,1 55654U 23021AC  23149.91667824 -.00907504  00000-0 -17550-1 0  9991,2 55654  70.0004 226.0380 0003628 273.2431  84.6462 15.50352859 16415,6793.832,92.882,418.162,413.232,0.0
55654.0,STARLINK-5070,PAYLOAD,2023-05-30 14:00:01,15.49030694,0.0003401,70.0005,224.2199,277.4542,198.6085,-0.017436,-0.00864331,0.0,0 STARLINK-5070,1 55654U 23021AC  23150.58334491 -.00864331  00000-0 -17436-1 0  9990,2 55654  70.0005 224.2199 0003401 277.4542 198.6085 15.49030694  1309,6797.697,92.961,421.874,417.25,0.0
55654.0,STARLINK-5070,PAYLOAD,2023-05-30 22:00:00,15.48388213,0.0003275,70.0004,223.3118,272.248,261.7292,-0.018513,-0.00906383,0.0,0 STARLINK-5070,1 55654U 23021AC  23150.91667824 -.00906383  00000-0 -18513-1 0  9997,2 55654  70.0004 223.3118 0003275 272.2480 261.7292 15.48388213 16560,6799.578,93.0,423.669,419.216,0.0
